              M50 Cartesian                         M50 Keplerian  
    -----------------------------------       --------------------------------
     X    =       -6709809.96                 A    =         6789213.06  meter
     Y    =        -354650.79  meter          E    =           .0012507
     Z    =         924695.52                 I    =           51.67450
     XDOT =       1073.560435                 Wp   =           47.87966
     YDOT =      -4751.092514  meter/sec      RA   =          176.78028  deg
     ZDOT =       5924.658415                 TA   =          322.12837
                                              MA   =          322.21629
                                              Ha   =            220.506  n.mi
                                              Hp   =            215.439
 
              M50 Cartesian                         J2K Cartesian  
    -----------------------------------       --------------------------------
     X    =      -22013812.20                 X    =        -6709837.25
     Y    =       -1163552.45  feet           Y    =         -429684.38  meter
     Z    =        3033777.97                 Z    =          892100.93
     XDOT =       3522.179905                 XDOT =        1097.829095
     YDOT =     -15587.573866  feet/sec       YDOT =       -4738.950815  meter/sec
     ZDOT =      19437.855691                 ZDOT =        5929.933041
 
              TDR Cartesian                         TDR Cartesian  
    -----------------------------------       --------------------------------
     X    =       19939501.42                 X    =         6077560.03
     Y    =        9445430.99  feet           Y    =         2878967.37  meter
     Z    =        2892353.18                 Z    =          881589.25
     XDOT =      -8374.173330                 XDOT =       -2552.448031
     YDOT =      11673.141090  feet/sec       YDOT =        3557.973404  meter/sec
     ZDOT =      19461.483471                 ZDOT =        5931.860162
  
  
    The mean element set is posted at the UTC for which position is
    just north of the next ascending node relative to the above
    vector time
 
 
    TWO LINE MEAN ELEMENT SET
  
    ISS
    1 25544U 98067A   16073.02788163  .00016717  00000-0  10270-3 0  9043
    2 25544  51.6410 177.5987 0001849 291.2100  68.8855 15.54056278 30028
  
  
    Satellite: ISS
    Catalog Number: 25544
    Epoch time:      16073.02788163   =   yrday.fracday
    Element set:     904
    Inclination:       51.6410  deg
    RA of node:       177.5987  deg
    Eccentricity:     .0001849     
    Arg of perigee:   291.2100  deg
    Mean anomaly:      68.8855  deg
    Mean motion:   15.54056278  rev/day
    Decay rate:    1.67170E-04  rev/day^2
    Epoch rev:            3002
    Checksum:              315
 
 
    Coasting Arc #6 (Orbit 3016)
    ---------------------------------------
 
    Vector Time (GMT): 2016/073/23:10:00.000
    Vector Time (MET): N/A
    Weight (LBS)     : 890369.9
 
              M50 Cartesian                         M50 Keplerian  
    -----------------------------------       --------------------------------
     X    =        6188442.84                 A    =         6786784.83  meter
     Y    =        1137417.21  meter          E    =           .0003477
     Z    =       -2541668.90                 I    =           51.69937
     XDOT =      -3023.745589                 Wp   =          136.34993
     YDOT =       4653.343046  meter/sec      RA   =          171.81062  deg
     ZDOT =      -5286.565228                 TA   =           72.15696
                                              MA   =           72.11903
                                              Ha   =            220.536  n.mi
                                              Hp   =            215.370
 
              M50 Cartesian                         J2K Cartesian  
    -----------------------------------       --------------------------------
     X    =       20303290.17                 X    =         6187610.35
     Y    =        3731683.75  feet           Y    =         1206615.56  meter
     Z    =       -8338808.74                 Z    =        -2511609.16
     XDOT =      -9920.425162                 XDOT =       -3049.875854
     YDOT =      15266.873511  feet/sec       YDOT =        4619.382846  meter/sec
     ZDOT =     -17344.374107                 ZDOT =       -5301.317780
 
              TDR Cartesian                         TDR Cartesian  
    -----------------------------------       --------------------------------
     X    =      -17603220.84                 X    =        -5365461.71
     Y    =      -10882649.18  feet           Y    =        -3317031.47  meter
     Z    =       -8208492.51                 Z    =        -2501948.52
     XDOT =      13897.592455                 XDOT =        4235.986180
     YDOT =      -9365.817462  feet/sec       YDOT =       -2854.701162  meter/sec
     ZDOT =     -17409.137512                 ZDOT =       -5306.305114
  
  
    The mean element set is posted at the UTC for which position is
    just north of the next ascending node relative to the above
    vector time
 
 
    TWO LINE MEAN ELEMENT SET
  
    ISS
    1 25544U 98067A   16073.99244820  .00016717  00000-0  10270-3 0  9057
    2 25544  51.6418 172.7907 0001879 300.9550  59.1418 15.54090078 30175
  
  
    Satellite: ISS
    Catalog Number: 25544
    Epoch time:      16073.99244820   =   yrday.fracday
    Element set:     905
    Inclination:       51.6418  deg
    RA of node:       172.7907  deg
    Eccentricity:     .0001879     
    Arg of perigee:   300.9550  deg
    Mean anomaly:      59.1418  deg
    Mean motion:   15.54090078  rev/day
    Decay rate:    1.67170E-04  rev/day^2
    Epoch rev:            3017
    Checksum:              316
 
 
    Coasting Arc #7 (Orbit 3032)
    ---------------------------------------
 
    Vector Time (GMT): 2016/074/23:10:00.000
    Vector Time (MET): N/A
    Weight (LBS)     : 890369.9
 
              M50 Cartesian                         M50 Keplerian  
    -----------------------------------       --------------------------------
     X    =       -5212103.87                 A    =         6783104.99  meter
     Y    =       -1927295.89  meter          E    =           .0009725
     Z    =        3881855.06                 I    =           51.71806
     XDOT =       4712.988641                 Wp   =           93.70911
     YDOT =      -4437.903626  meter/sec      RA   =          166.83517  deg
     ZDOT =       4115.186242                 TA   =          313.13828
                                              MA   =          313.21957
                                              Ha   =            220.635  n.mi
                                              Hp   =            215.265
 
              M50 Cartesian                         J2K Cartesian  
    -----------------------------------       --------------------------------
     X    =      -17100078.32                 X    =        -5209021.32
     Y    =       -6323149.23  feet           Y    =        -1985563.49  meter
     Z    =       12735744.95                 Z    =         3856543.71
     XDOT =      15462.561157                 XDOT =        4742.274357
     YDOT =     -14560.051266  feet/sec       YDOT =       -4385.035719  meter/sec
     ZDOT =      13501.267198                 ZDOT =        4138.152243
 
              TDR Cartesian                         TDR Cartesian  
    -----------------------------------       --------------------------------
     X    =       13909947.44                 X    =         4239751.98
     Y    =       11903266.71  feet           Y    =         3628115.69  meter
     Z    =       12626151.35                 Z    =         3848450.93
     XDOT =     -18611.237534                 XDOT =       -5672.705200
     YDOT =       7287.719857  feet/sec       YDOT =        2221.297012  meter/sec
     ZDOT =      13601.668764                 ZDOT =        4145.788639
  
  
    The mean element set is posted at the UTC for which position is
    just north of the next ascending node relative to the above
    vector time
 
 
    TWO LINE MEAN ELEMENT SET
  
    ISS
    1 25544U 98067A   16075.02130175  .00016717  00000-0  10270-3 0  9061
    2 25544  51.6411 167.6628 0001842 305.0305  55.0675 15.54107912 30339
  
  
    Satellite: ISS
    Catalog Number: 25544
    Epoch time:      16075.02130175   =   yrday.fracday
    Element set:     906
    Inclination:       51.6411  deg
    RA of node:       167.6628  deg
    Eccentricity:     .0001842     
    Arg of perigee:   305.0305  deg
    Mean anomaly:      55.0675  deg
    Mean motion:   15.54107912  rev/day
    Decay rate:    1.67170E-04  rev/day^2
    Epoch rev:            3033
    Checksum:              274
 
 
    Coasting Arc #8 (Orbit 3047)
    ---------------------------------------
 
    Vector Time (GMT): 2016/075/23:10:00.000
    Vector Time (MET): N/A
    Weight (LBS)     : 890369.9
 
              M50 Cartesian                         M50 Keplerian  
    -----------------------------------       --------------------------------
     X    =        3868940.51                 A    =         6779412.66  meter
     Y    =        2755109.10  meter          E    =           .0010661
     Z    =       -4847588.07                 I    =           51.73800
     XDOT =      -6007.928726                 Wp   =           63.65243
     YDOT =       4042.105102  meter/sec      RA   =          161.85097  deg
     ZDOT =      -2497.350123                 TA   =          181.81139
                                              MA   =          181.81526
                                              Ha   =            220.497  n.mi
                                              Hp   =            215.248
 
